[{"OBJECT_NAME":"GPS BIIF-7  (PRN 09)","OBJECT_ID":"2014-045A","EPOCH":"2026-04-04T06:15:40.882176","MEAN_MOTION":2.00553624,"ECCENTRICITY":0.00313994,"INCLINATION":55.304,"RA_OF_ASC_NODE":91.4082,"ARG_OF_PERICENTER":119.7909,"MEAN_ANOMALY":240.5313,"EPHEMERIS_TYPE":0,"CLASSIFICATION_TYPE":"U","NORAD_CAT_ID":40105,"ELEMENT_SET_NO":999,"REV_AT_EPOCH":8459,"BSTAR":0,"MEAN_MOTION_DOT":1.0e-8,"MEAN_MOTION_DDOT":0},{"OBJECT_NAME":"GPS BIIF-8  (PRN 03)","OBJECT_ID":"2014-068A","EPOCH":"2026-04-03T15:18:47.297088","MEAN_MOTION":2.00571763,"ECCENTRICITY":0.00642319,"INCLINATION":56.9398,"RA_OF_ASC_NODE":33.8272,"ARG_OF_PERICENTER":68.3531,"MEAN_ANOMALY":292.3128,"EPHEMERIS_TYPE":0,"CLASSIFICATION_TYPE":"U","NORAD_CAT_ID":40294,"ELEMENT_SET_NO":999,"REV_AT_EPOCH":8371,"BSTAR":0,"MEAN_MOTION_DOT":-9.1e-7,"MEAN_MOTION_DDOT":0},{"OBJECT_NAME":"GPS BIIF-9  (PRN 26)","OBJECT_ID":"2015-013A","EPOCH":"2026-04-04T06:28:11.974656","MEAN_MOTION":2.00555851,"ECCENTRICITY":0.01088063,"INCLINATION":53.1793,"RA_OF_ASC_NODE":207.2341,"ARG_OF_PERICENTER":39.9345,"MEAN_ANOMALY":320.8563,"EPHEMERIS_TYPE":0,"CLASSIFICATION_TYPE":"U","NORAD_CAT_ID":40534,"ELEMENT_SET_NO":999,"REV_AT_EPOCH":8034,"BSTAR":0,"MEAN_MOTION_DOT":3.0e-8,"MEAN_MOTION_DDOT":0},{"OBJECT_NAME":"GPS BIIF-10 (PRN 08)","OBJECT_ID":"2015-033A","EPOCH":"2026-04-03T10:22:33.616992","MEAN_MOTION":2.00560127,"ECCENTRICITY":0.01149357,"INCLINATION":54.0424,"RA_OF_ASC_NODE":270.1663,"ARG_OF_PERICENTER":29.5641,"MEAN_ANOMALY":331.052,"EPHEMERIS_TYPE":0,"CLASSIFICATION_TYPE":"U","NORAD_CAT_ID":40730,"ELEMENT_SET_NO":999,"REV_AT_EPOCH":7849,"BSTAR":0,"MEAN_MOTION_DOT":-3.1e-7,"MEAN_MOTION_DDOT":0},{"OBJECT_NAME":"GPS BIIF-11 (PRN 10)","OBJECT_ID":"2015-062A","EPOCH":"2026-04-03T11:46:35.851872","MEAN_MOTION":2.00567162,"ECCENTRICITY":0.01112914,"INCLINATION":56.9127,"RA_OF_ASC_NODE":33.6891,"ARG_OF_PERICENTER":231.5972,"MEAN_ANOMALY":127.3862,"EPHEMERIS_TYPE":0,"CLASSIFICATION_TYPE":"U","NORAD_CAT_ID":41019,"ELEMENT_SET_NO":999,"REV_AT_EPOCH":7633,"BSTAR":0,"MEAN_MOTION_DOT":-9.1e-7,"MEAN_MOTION_DDOT":0},{"OBJECT_NAME":"GPS BIIF-12 (PRN 32)","OBJECT_ID":"2016-007A","EPOCH":"2026-04-04T01:49:23.340576","MEAN_MOTION":2.00555347,"ECCENTRICITY":0.00959766,"INCLINATION":55.4769,"RA_OF_ASC_NODE":92.3961,"ARG_OF_PERICENTER":246.7228,"MEAN_ANOMALY":112.2751,"EPHEMERIS_TYPE":0,"CLASSIFICATION_TYPE":"U","NORAD_CAT_ID":41328,"ELEMENT_SET_NO":999,"REV_AT_EPOCH":7435,"BSTAR":0,"MEAN_MOTION_DOT":4.0e-8,"MEAN_MOTION_DDOT":0},{"OBJECT_NAME":"GPS BIII-1  (PRN 04)","OBJECT_ID":"2018-109A","EPOCH":"2026-04-04T11:06:28.893024","MEAN_MOTION":2.00558402,"ECCENTRICITY":0.00379913,"INCLINATION":55.6365,"RA_OF_ASC_NODE":95.0933,"ARG_OF_PERICENTER":198.8846,"MEAN_ANOMALY":333.1225,"EPHEMERIS_TYPE":0,"CLASSIFICATION_TYPE":"U","NORAD_CAT_ID":43873,"ELEMENT_SET_NO":999,"REV_AT_EPOCH":5359,"BSTAR":0,"MEAN_MOTION_DOT":7.0e-8,"MEAN_MOTION_DDOT":0},{"OBJECT_NAME":"GPS BIII-2  (PRN 18)","OBJECT_ID":"2019-056A","EPOCH":"2026-04-04T14:23:03.600672","MEAN_MOTION":2.00569057,"ECCENTRICITY":0.0058748,"INCLINATION":55.6703,"RA_OF_ASC_NODE":334.0687,"ARG_OF_PERICENTER":197.6098,"MEAN_ANOMALY":334.3913,"EPHEMERIS_TYPE":0,"CLASSIFICATION_TYPE":"U","NORAD_CAT_ID":44506,"ELEMENT_SET_NO":999,"REV_AT_EPOCH":4859,"BSTAR":0,"MEAN_MOTION_DOT":-9.1e-7,"MEAN_MOTION_DDOT":0},{"OBJECT_NAME":"GPS BIII-3  (PRN 23)","OBJECT_ID":"2020-041A","EPOCH":"2026-04-03T16:26:38.384736","MEAN_MOTION":2.00560321,"ECCENTRICITY":0.00617385,"INCLINATION":56.6249,"RA_OF_ASC_NODE":31.8341,"ARG_OF_PERICENTER":205.125,"MEAN_ANOMALY":327.9792,"EPHEMERIS_TYPE":0,"CLASSIFICATION_TYPE":"U","NORAD_CAT_ID":45854,"ELEMENT_SET_NO":999,"REV_AT_EPOCH":4254,"BSTAR":0,"MEAN_MOTION_DOT":-9.3e-7,"MEAN_MOTION_DDOT":0},{"OBJECT_NAME":"GPS BIII-4  (PRN 14)","OBJECT_ID":"2020-078A","EPOCH":"2026-04-03T17:13:03.638208","MEAN_MOTION":2.00565259,"ECCENTRICITY":0.00698636,"INCLINATION":53.9941,"RA_OF_ASC_NODE":213.7975,"ARG_OF_PERICENTER":205.1343,"MEAN_ANOMALY":325.3254,"EPHEMERIS_TYPE":0,"CLASSIFICATION_TYPE":"U","NORAD_CAT_ID":46826,"ELEMENT_SET_NO":999,"REV_AT_EPOCH":4001,"BSTAR":0,"MEAN_MOTION_DOT":-3.0e-8,"MEAN_MOTION_DDOT":0},{"OBJECT_NAME":"GPS BIII-5  (PRN 11)","OBJECT_ID":"2021-054A","EPOCH":"2026-03-28T01:21:33.319296","MEAN_MOTION":2.00573996,"ECCENTRICITY":0.0023817,"INCLINATION":55.2101,"RA_OF_ASC_NODE":335.7223,"ARG_OF_PERICENTER":231.1961,"MEAN_ANOMALY":354.6747,"EPHEMERIS_TYPE":0,"CLASSIFICATION_TYPE":"U","NORAD_CAT_ID":48859,"ELEMENT_SET_NO":999,"REV_AT_EPOCH":3512,"BSTAR":0,"MEAN_MOTION_DOT":-8.8e-7,"MEAN_MOTION_DDOT":0},{"OBJECT_NAME":"GPS BIII-6  (PRN 28)","OBJECT_ID":"2023-009A","EPOCH":"2026-03-28T04:24:38.672352","MEAN_MOTION":2.00547447,"ECCENTRICITY":0.00053805,"INCLINATION":55.1104,"RA_OF_ASC_NODE":151.7031,"ARG_OF_PERICENTER":326.6502,"MEAN_ANOMALY":28.0595,"EPHEMERIS_TYPE":0,"CLASSIFICATION_TYPE":"U","NORAD_CAT_ID":55268,"ELEMENT_SET_NO":999,"REV_AT_EPOCH":2361,"BSTAR":0,"MEAN_MOTION_DOT":0,"MEAN_MOTION_DDOT":0},{"OBJECT_NAME":"GPS BIII-7  (PRN 01)","OBJECT_ID":"2024-242A","EPOCH":"2026-04-04T07:21:38.597472","MEAN_MOTION":2.0057043,"ECCENTRICITY":0.0016583,"INCLINATION":54.879,"RA_OF_ASC_NODE":337.1781,"ARG_OF_PERICENTER":1.2127,"MEAN_ANOMALY":180.4972,"EPHEMERIS_TYPE":0,"CLASSIFICATION_TYPE":"U","NORAD_CAT_ID":62339,"ELEMENT_SET_NO":999,"REV_AT_EPOCH":977,"BSTAR":0,"MEAN_MOTION_DOT":-9.5e-7,"MEAN_MOTION_DDOT":0},{"OBJECT_NAME":"GPS BIII-8  (PRN 21)","OBJECT_ID":"2025-116A","EPOCH":"2026-04-04T19:14:56.523840","MEAN_MOTION":2.00551336,"ECCENTRICITY":0.0008989,"INCLINATION":55.188,"RA_OF_ASC_NODE":34.0836,"ARG_OF_PERICENTER":331.9614,"MEAN_ANOMALY":31.0765,"EPHEMERIS_TYPE":0,"CLASSIFICATION_TYPE":"U","NORAD_CAT_ID":64202,"ELEMENT_SET_NO":999,"REV_AT_EPOCH":640,"BSTAR":0,"MEAN_MOTION_DOT":-8.7e-7,"MEAN_MOTION_DDOT":0},{"OBJECT_NAME":"GPS BIII-9  (PRN 20)","OBJECT_ID":"2026-017A","EPOCH":"2026-04-04T09:49:34.959360","MEAN_MOTION":2.00553521,"ECCENTRICITY":0.00244361,"INCLINATION":55.0405,"RA_OF_ASC_NODE":91.7145,"ARG_OF_PERICENTER":250.4586,"MEAN_ANOMALY":109.2865,"EPHEMERIS_TYPE":0,"CLASSIFICATION_TYPE":"U","NORAD_CAT_ID":67588,"ELEMENT_SET_NO":999,"REV_AT_EPOCH":43013,"BSTAR":0,"MEAN_MOTION_DOT":1.0e-8,"MEAN_MOTION_DDOT":0}]
