GPS BIIF-7  (PRN 09)    
1 40105U 14045A   26094.26088984  .00000001  00000+0  00000+0 0  9999
2 40105  55.3040  91.4082 0031399 119.7909 240.5313  2.00553624 84595
GPS BIIF-8  (PRN 03)    
1 40294U 14068A   26093.63804742 -.00000091  00000+0  00000+0 0  9991
2 40294  56.9398  33.8272 0064231  68.3531 292.3128  2.00571763 83715
GPS BIIF-9  (PRN 26)    
1 40534U 15013A   26094.26958304  .00000003  00000+0  00000+0 0  9995
2 40534  53.1793 207.2341 0108806  39.9345 320.8563  2.00555851 80344
GPS BIIF-10 (PRN 08)    
1 40730U 15033A   26093.43233353 -.00000031  00000+0  00000+0 0  9995
2 40730  54.0424 270.1663 0114935  29.5641 331.0520  2.00560127 78495
GPS BIIF-11 (PRN 10)    
1 41019U 15062A   26093.49069273 -.00000091  00000+0  00000+0 0  9998
2 41019  56.9127  33.6891 0111291 231.5972 127.3862  2.00567162 76338
GPS BIIF-12 (PRN 32)    
1 41328U 16007A   26094.07596459  .00000004  00000+0  00000+0 0  9990
2 41328  55.4769  92.3961 0095976 246.7228 112.2751  2.00555347 74352
GPS BIII-1  (PRN 04)    
1 43873U 18109A   26094.46283441  .00000007  00000+0  00000+0 0  9992
2 43873  55.6365  95.0933 0037991 198.8846 333.1225  2.00558402 53596
GPS BIII-2  (PRN 18)    
1 44506U 19056A   26094.59934723 -.00000091  00000+0  00000+0 0  9992
2 44506  55.6703 334.0687 0058748 197.6098 334.3913  2.00569057 48596
GPS BIII-3  (PRN 23)    
1 45854U 20041A   26093.68516649 -.00000093  00000+0  00000+0 0  9999
2 45854  56.6249  31.8341 0061738 205.1250 327.9792  2.00560321 42543
GPS BIII-4  (PRN 14)    
1 46826U 20078A   26093.71740322 -.00000003  00000+0  00000+0 0  9991
2 46826  53.9941 213.7975 0069863 205.1343 325.3254  2.00565259 40016
GPS BIII-5  (PRN 11)    
1 48859U 21054A   26087.05663564 -.00000088  00000+0  00000+0 0  9999
2 48859  55.2101 335.7223 0023817 231.1961 354.6747  2.00573996 35127
GPS BIII-6  (PRN 28)    
1 55268U 23009A   26087.18378093  .00000000  00000+0  00000+0 0  9990
2 55268  55.1104 151.7031 0005380 326.6502  28.0595  2.00547447 23616
GPS BIII-7  (PRN 01)    
1 62339U 24242A   26094.30669673 -.00000095  00000+0  00000+0 0  9991
2 62339  54.8790 337.1781 0016583   1.2127 180.4972  2.00570430  9779
GPS BIII-8  (PRN 21)    
1 64202U 25116A   26094.80204310 -.00000087  00000+0  00000+0 0  9992
2 64202  55.1880  34.0836 0008989 331.9614  31.0765  2.00551336  6405
GPS BIII-9  (PRN 20)    
1 67588U 26017A   26094.40943240  .00000001  00000+0  00000+0 0  9996
2 67588  55.0405  91.7145 0024436 250.4586 109.2865  2.00553521430136
